QIANFAN-65              
1 62795U 25016L   25243.18802983  .00000107  00000+0  14673-3 0  9999
2 62795  88.9785 113.7723 0012255 286.9271  73.0536 13.50966138 33260
QIANFAN-66              
1 62796U 25016M   25243.21678892  .00000116  00000+0  16137-3 0  9991
2 62796  88.9804 113.7192 0013301 281.5219  78.4438 13.50961369 33316
QIANFAN-67              
1 62797U 25016N   25243.22085083  .00000115  00000+0  16020-3 0  9997
2 62797  88.9794 113.7544 0013395 289.2345  70.7357 13.50970011 33289
QIANFAN-68              
1 62798U 25016P   25243.22495539  .00000123  00000+0  17149-3 0  9991
2 62798  88.9798 113.7984 0013985 287.1197  72.8422 13.50967514 33267
QIANFAN-69              
1 62799U 25016Q   25243.22910433  .00000122  00000+0  16999-3 0  9998
2 62799  88.9777 113.6868 0014174 288.1736  71.7871 13.50963026 33301
QIANFAN-70              
1 62800U 25016R   25243.24556706  .00000098  00000+0  13291-3 0  9996
2 62800  88.9798 113.8016 0013611 277.4102  82.5502 13.50966926 33265
QIANFAN-71              
1 62801U 25016S   25243.24153241  .00000107  00000+0  14756-3 0  9992
2 62801  88.9792 113.7879 0014162 292.0972  67.8675 13.50966631 33266
QIANFAN-72              
1 62802U 25016T   25243.23734790  .00000106  00000+0  14575-3 0  9994
2 62802  88.9781 113.8069 0017711 298.2842  61.6521 13.50962059 33255
